STARLINK-31630          
1 59271U 24050T   26068.56880718 -.00002063  00000+0 -57526-4 0  9991
2 59271  53.1600 168.5079 0001409  92.3163 267.7999 15.30200807110710
STARLINK-34349          
1 64215U 25117N   26068.35462550  .00027383  00000+0  93325-3 0  9993
2 64215  53.1600  41.2132 0001390 100.6310 259.4847 15.30200792 44479
